BEIDOU-2 IGSO-1 (C06)   
1 36828U 10036A   23280.35640493 -.00000133  00000+0  00000+0 0  9992
2 36828  54.2338 171.8738 0036568 187.1871 249.1014  1.00244294 48368
BEIDOU-2 G4 (C04)       
1 37210U 10057A   23280.44549687 -.00000119  00000+0  00000+0 0  9998
2 37210   1.2498  62.3161 0007230 163.2270 110.6729  1.00273021 47420
BEIDOU-2 IGSO-2 (C07)   
1 37256U 10068A   23280.30860135 -.00000174  00000+0  00000+0 0  9990
2 37256  49.3504 283.9035 0032099 213.4329  97.9015  1.00273533 46923
BEIDOU-2 IGSO-3 (C08)   
1 37384U 11013A   23280.31085946 -.00000171  00000+0  00000+0 0  9990
2 37384  60.9892  49.5756 0028210 176.6528   9.5585  1.00273625 45800
BEIDOU-2 IGSO-4 (C09)   
1 37763U 11038A   23279.72221707 -.00000128  00000+0  00000+0 0  9990
2 37763  54.5074 174.4251 0111939 227.7263 328.1780  1.00267630 44776
BEIDOU-2 IGSO-5 (C10)   
1 37948U 11073A   23279.61707546 -.00000125  00000+0  00000+0 0  9999
2 37948  49.4773 283.5813 0094957 220.7950 188.1214  1.00265457 43536
BEIDOU-2 G5 (C05)       
1 38091U 12008A   23280.17191042  .00000050  00000+0  00000+0 0  9995
2 38091   1.7874  68.9268 0005587 180.2665 246.9397  1.00271794 42616
BEIDOU-2 M3 (C11)       
1 38250U 12018A   23278.87880627 -.00000103  00000+0  00000+0 0  9991
2 38250  56.4935 337.8284 0024648 257.1638 102.6175  1.86231238 77597
BEIDOU-2 M4 (C12)       
1 38251U 12018B   23279.88402127 -.00000098  00000+0  00000+0 0  9992
2 38251  56.4034 337.0857 0015560 257.7048 102.1787  1.86231990 77960
BEIDOU-2 M6 (C14)       
1 38775U 12050B   23280.13076246  .00000023  00000+0  00000+0 0  9995
2 38775  55.7168  95.6675 0010838 340.1653  19.8321  1.86231306 75336
BEIDOU-2 G6 (C02)       
1 38953U 12059A   23280.39190359 -.00000183  00000+0  00000+0 0  9990
2 38953   1.9093  81.7970 0006760 301.8391 217.3038  1.00271595 40185
BEIDOU-3S IGSO-1S (C31) 
1 40549U 15019A   23279.90726493 -.00000127  00000+0  00000+0 0  9990
2 40549  51.0408 307.1865 0040891 197.1780 288.6750  1.00250241 31204
BEIDOU-3S M2S (C57)     
1 40748U 15037A   23279.54950580 -.00000098  00000+0  00000+0 0  9994
2 40748  55.6430 335.6762 0012398 245.7128 114.2147  1.86233263 55781
BEIDOU-3S M1S (C58)     
1 40749U 15037B   23279.28270365 -.00000099  00000+0  00000+0 0  9993
2 40749  55.6462 335.6715 0004505 295.4503  64.5599  1.86232976 55783
BEIDOU-3S IGSO-2S (C56) 
1 40938U 15053A   23280.36696819 -.00000112  00000+0  00000+0 0  9994
2 40938  50.7604 270.3590 0047747 194.6158 139.4991  1.00275901 29481
BEIDOU-2 IGSO-6 (C13)   
1 41434U 16021A   23280.33352994 -.00000152  00000+0  00000+0 0  9996
2 41434  58.8042  47.9304 0048328 218.9472 325.7401  1.00276790 27609
BEIDOU-2 G7 (C03)       
1 41586U 16037A   23279.93368465 -.00000362  00000+0  00000+0 0  9998
2 41586   1.9480  68.8465 0006712 337.7668  55.3993  1.00269579 26923
BEIDOU-3 M1 (C19)       
1 43001U 17069A   23279.89706377  .00000021  00000+0  00000+0 0  9992
2 43001  55.8681  95.7380 0007158 298.7000  61.2671  1.86231680 40273
BEIDOU-3 M2 (C20)       
1 43002U 17069B   23279.83385617  .00000020  00000+0  00000+0 0  9996
2 43002  55.8674  95.7769 0005427 333.5159  26.4954  1.86231259 40265
BEIDOU-3 M7 (C27)       
1 43107U 18003A   23279.58456727 -.00000100  00000+0  00000+0 0  9994
2 43107  55.0994 336.3774 0002806  73.6284 286.4587  1.86232553 39016
BEIDOU-3 M8 (C28)       
1 43108U 18003B   23279.52293531 -.00000100  00000+0  00000+0 0  9991
2 43108  55.0925 336.3664 0004630 249.2747 110.7320  1.86231023 39027
BEIDOU-3 M4 (C22)       
1 43207U 18018A   23278.89117706  .00000010  00000+0  00000+0 0  9994
2 43207  55.8263  95.8694 0004325  20.5417 339.5126  1.86231594 38392
BEIDOU-3 M3 (C21)       
1 43208U 18018B   23279.49479258  .00000016  00000+0  00000+0 0  9991
2 43208  55.8259  95.8537 0005081 317.6434  42.3556  1.86231568 38402
BEIDOU-3 M9 (C29)       
1 43245U 18029A   23279.71752320 -.00000095  00000+0  00000+0 0  9991
2 43245  54.9921 334.1035 0001868 237.0776 122.9613  1.86232817 37567
BEIDOU-3 M10 (C30)      
1 43246U 18029B   23279.64750099 -.00000096  00000+0  00000+0 0  9996
2 43246  54.9896 334.1348 0002977 342.7449  17.3019  1.86232994 37540
BEIDOU-2 IGSO-7 (C16)   
1 43539U 18057A   23280.32038413 -.00000152  00000+0  00000+0 0  9991
2 43539  55.1177 171.5702 0063867 230.4111 202.9488  1.00273785 19294
BEIDOU-3 M5 (C23)       
1 43581U 18062A   23279.33076497 -.00000016  00000+0  00000+0 0  9996
2 43581  54.1711 215.8219 0004293 289.9770  69.9706  1.86232006 35294
BEIDOU-3 M6 (C24)       
1 43582U 18062B   23280.27095056 -.00000028  00000+0  00000+0 0  9997
2 43582  54.1704 215.7795 0005580   8.2251 351.7766  1.86229923 35316
BEIDOU-3 M12 (C26)      
1 43602U 18067A   23279.67000253 -.00000022  00000+0  00000+0 0  9996
2 43602  54.2582 214.4583 0007381  16.9096 343.1100  1.86231510 34781
BEIDOU-3 M11 (C25)      
1 43603U 18067B   23279.26688402 -.00000017  00000+0  00000+0 0  9994
2 43603  54.2554 214.4378 0004348   4.7864 355.2133  1.86231479 34808
BEIDOU-3 M13 (C32)      
1 43622U 18072A   23279.22585053  .00000013  00000+0  00000+0 0  9990
2 43622  55.7959  95.3980 0003979 291.8345  68.1601  1.86231588 34318
BEIDOU-3 M14 (C33)      
1 43623U 18072B   23280.16521347  .00000023  00000+0  00000+0 0  9993
2 43623  55.7987  95.3593 0002305 349.8559  10.1787  1.86231569 34325
BEIDOU-3 M16 (C35)      
1 43647U 18078A   23279.79150378 -.00000095  00000+0  00000+0 0  9994
2 43647  54.8886 334.2212 0006011   2.8935 357.1670  1.86227372 33820
BEIDOU-3 M15 (C34)      
1 43648U 18078B   23279.92124878 -.00000095  00000+0  00000+0 0  9996
2 43648  54.8842 334.2203 0002780   7.3940 352.6672  1.86232373 33850
BEIDOU-3 G1 (C59)       
1 43683U 18085A   23279.97320536 -.00000287  00000+0  00000+0 0  9990
2 43683   1.5855 122.1639 0001989   8.2473  15.3074  1.00267562 18182
BEIDOU-3 M17 (C36)      
1 43706U 18093A   23280.06911124 -.00000025  00000+0  00000+0 0  9996
2 43706  54.2534 215.7164 0009405 284.4344  75.4543  1.86232104 33199
BEIDOU-3 M18 (C37)      
1 43707U 18093B   23279.39849997 -.00000017  00000+0  00000+0 0  9990
2 43707  54.2544 215.7309 0007991 312.2769  47.6492  1.86229919 33195
BEIDOU-3 IGSO-1 (C38)   
1 44204U 19023A   23280.25580021 -.00000206  00000+0  00000+0 0  9994
2 44204  57.2709  47.8969 0024024 196.3026 343.4233  1.00272992 16492
BEIDOU-2 G8 (C01)       
1 44231U 19027A   23279.97407558 -.00000254  00000+0  00000+0 0  9991
2 44231   2.0384  80.9895 0006974 135.5966 293.9946  1.00274143 16206
BEIDOU-3 IGSO-2 (C39)   
1 44337U 19035A   23280.31685287 -.00000151  00000+0  00000+0 0  9990
2 44337  55.1518 167.5020 0032846 195.6867 245.8280  1.00264594 15831
BEIDOU-3 M24 (C46)      
1 44542U 19061A   23279.46995101 -.00000017  00000+0  00000+0 0  9991
2 44542  54.4807 215.9732 0008525 347.6710  12.3015  1.86231547 27453
BEIDOU-3 M23 (C45)      
1 44543U 19061B   23280.40545867 -.00000029  00000+0  00000+0 0  9991
2 44543  54.4793 215.9106 0005738 334.6047 204.5140  1.86231953 27461
BEIDOU-3 IGSO-3 (C40)   
1 44709U 19073A   23279.43467738 -.00000153  00000+0  00000+0 0  9997
2 44709  56.4824 291.4131 0034981 190.8601 169.0866  1.00272352 14582
BEIDOU-3 M22 (C44)      
1 44793U 19078A   23279.85230438 -.00000095  00000+0  00000+0 0  9991
2 44793  54.7368 334.1822 0004783  10.2986 349.7682  1.86232327 26329
BEIDOU-3 M21 (C43)      
1 44794U 19078B   23277.83499715 -.00000102  00000+0  00000+0 0  9992
2 44794  54.7118 334.2336 0002852 355.7733   4.2803  1.86232677 26287
BEIDOU-3 M19 (C41)      
1 44864U 19090A   23279.46643662  .00000015  00000+0  00000+0 0  9999
2 44864  55.7307  95.5745 0015157 274.0798 293.4960  1.86231902 25895
BEIDOU-3 M20 (C42)      
1 44865U 19090B   23280.32360866  .00000025  00000+0  00000+0 0  9990
2 44865  55.7331  95.5786 0012879 289.3424 222.7067  1.86231889 25887
BEIDOU-3 G2 (C60)       
1 45344U 20017A   23279.96128325 -.00000149  00000+0  00000+0 0  9992
2 45344   2.0697  17.8925 0003273 185.3324 238.2414  1.00272702 13402
BEIDOU-3 G3 (C61)       
1 45807U 20040A   23279.93378549 -.00000363  00000+0  00000+0 0  9992
2 45807   0.5939 350.8856 0007811 316.3624 154.8322  1.00272840 12203
BEIDOU-3 G4             
1 56564U 23066A   23279.90550177 -.00000123  00000+0  00000+0 0  9995
2 56564   2.7643 288.6809 0006061 223.6317 349.0135  1.00272231  1530
